STARLINK-5691
1 55478U 23015AF  26090.83335647  .00090858  00000+0  46869-2 0  9990
2 55478  43.0006 192.4162 0001418 307.4285 205.2021 15.15332011  5810
